0 XW-2C
1 40906U 15049H   22355.88580043  .00008536  00000-0  38294-3 0  9992
2 40906  97.4962 358.1048 0014877  66.8466  49.6992 15.21350142401390
0 XW-2A
1 40903U 15049E   22355.86119771  .00057015  00000-0  57544-3 0  9998
2 40903  97.1525  55.6176 0008060 131.8963 282.6677 15.65147872408446
0 CSS (TIANHE-1)
1 48274U 21035A   22355.86045459  .00018081  00000-0  22317-3 0  9990
2 48274  41.4753 156.4051 0003663 184.5719 321.5827 15.59729933 94101
0 XW-2B
1 40911U 15049N   22355.84551449  .00009857  00000-0  43080-3 0  9998
2 40911  97.4929 358.7754 0014066  63.6152  21.5825 15.22210504401332
0 LILACSAT 2
1 40908U 15049K   22355.84204955  .00004449  00000-0  22748-3 0  9991
2 40908  97.5225 354.7860 0016559  86.6285  33.2400 15.17059916400883
0 XW-2E
1 40909U 15049L   22355.83780155  .00016545  00000-0  61200-3 0  9998
2 40909  97.4630   3.2970 0012361  41.0608  78.7666 15.27697452401975
0 XW-2F
1 40910U 15049M   22355.83271126  .00016444  00000-0  61844-3 0  9995
2 40910  97.4716   2.4763 0013218  42.6033  81.6799 15.27140313401737
0 OBJECT C
1 54684U 22167C   22355.81530250  .00008950  00000-0  57010-3 0  9994
2 54684  97.5379 130.5919 0014111 221.8440 300.0600 15.08900557  1882
0 XW-2D
1 40907U 15049J   22355.81097545  .00010001  00000-0  43520-3 0  9994
2 40907  97.4944 358.2090 0014011  62.4758  55.0739 15.22353568401447
0 TEVEL 8
1 50989U 22002F   22355.80232598  .00012142  00000-0  60845-3 0  9997
2 50989  97.4625  59.8089 0010197 128.1551 326.7095 15.17463472 51790
0 TEVEL 3
1 50988U 22002E   22355.79944466  .00012274  00000-0  61402-3 0  9994
2 50988  97.4608  59.7672 0010038 128.6699  14.5496 15.17520822 51799
0 TEVEL 1
1 51013U 22002AF  22355.79636069  .00012216  00000-0  61170-3 0  9999
2 51013  97.4601  59.7284 0009930 128.7594 327.2830 15.17490023 51790
0 TEVEL 2
1 51069U 22002CP  22355.79254378  .00012287  00000-0  61479-3 0  9999
2 51069  97.4596  59.7388 0009963 128.4664 327.2479 15.17516481 51796
0 DIWATA 2B
1 43678U 18084H   22355.78744019  .00000970  00000-0  10007-3 0  9993
2 43678  97.9950 131.6060 0010612  34.0191 326.1725 14.92566234225797
0 ISS (ZARYA)
1 25544U 98067A   22355.76569365  .00017546  00000-0  31994-3 0  9996
2 25544  51.6441 127.3513 0005793 171.6498 336.0734 15.49520708374275
0 TEVEL 5
1 50998U 22002Q   22355.75853124  .00012585  00000-0  61923-3 0  9994
2 50998  97.4607  59.9415 0011625 125.1843  23.8034 15.18080730 51805
0 TEVEL 6
1 50999U 22002R   22355.75744693  .00012562  00000-0  61799-3 0  9991
2 50999  97.4599  59.9371 0011664 125.0143  23.4123 15.18087197 51801
0 TEVEL 4
1 51063U 22002CH  22355.74050226  .00012048  00000-0  60414-3 0  9997
2 51063  97.4621  59.7200 0010215 127.2803 328.2552 15.17441588 51783
0 TEVEL 7
1 51062U 22002CG  22355.73859813  .00012145  00000-0  60862-3 0  9999
2 51062  97.4619  59.7251 0010285 127.7266 328.0067 15.17461883 51789
0 EYESAT A
1 22825U 93061C   22355.65791794  .00000123  00000-0  65478-4 0  9993
2 22825  98.8667  30.4634 0007769 220.7196 139.3406 14.30220277525186
0 NEXUS
1 43937U 19003F   22355.62725211  .00022602  00000-0  63544-3 0  9999
2 43937  97.1113  22.1145 0017110 196.4747 163.5943 15.36363222218659
0 ZHUHAI-1 02
1 42759U 17034B   22355.59639872  .00007207  00000-0  40603-3 0  9990
2 42759  43.0183  20.0417 0009931  25.7021 122.0055 15.13609110304695
0 SAUDISAT 1C
1 27607U 02058C   22355.55846012  .00001511  00000-0  22541-3 0  9990
2 27607  64.5550  89.1913 0080610 259.0133 100.1894 14.76503596 76202
0 ZHUHAI-1 01
1 42761U 17034D   22355.55292594  .00006950  00000-0  39094-3 0  9991
2 42761  43.0188  18.9316 0010077  28.3974 106.3238 15.13706378304698
0 OSCAR 7
1 07530U 74089B   22355.48732995 -.00000027  00000-0  11954-3 0  9990
2 07530 101.9290 336.1037 0012425  44.1311  86.8081 12.53659551200904
0 ES'HAIL 2
1 43700U 18090A   22355.47195313  .00000169  00000-0  00000-0 0  9998
2 43700   0.0049  83.4750 0001263 228.4287 333.8118  1.00270833 14906
0 FUNCUBE 1
1 39444U 13066AE  22355.44563220  .00003184  00000-0  37418-3 0  9995
2 39444  97.6489 321.2853 0056373 136.9706 223.5938 14.84420026489250
0 AO-92
1 43137U 18004AC  22355.44462822  .00017988  00000-0  54853-3 0  9991
2 43137  97.3525  69.2386 0008289  62.8651 297.3436 15.33969035274966
0 UVSQ-SAT
1 47438U 21006AB  22355.43740359  .00010334  00000-0  50595-3 0  9995
2 47438  97.4143  50.6392 0010962 353.1937   6.9147 15.18308739105626
0 BREEZE-KM R/B
1 44909U 19096E   22355.43668179  .00000004  00000-0 -24195-4 0  9992
2 44909  82.5215 106.0621 0216646 242.3864 115.5091 12.79717230139421
0 JAS 2
1 24278U 96046B   22355.43443871  .00000010  00000-0  44199-4 0  9991
2 24278  98.5141 353.3666 0350692 157.9383 203.7281 13.53126476300897
0 NAYIF 1
1 42017U 17008BX  22355.42876708  .00034714  00000-0  79261-3 0  9996
2 42017  97.2465  59.4700 0002762 306.7935  53.3059 15.42790281325817
0 LAPAN A2
1 40931U 15052B   22355.36347222  .00001281  00000-0  88456-4 0  9993
2 40931   5.9978 275.6053 0013575 295.8919 352.9548 14.76950156391013
0 JY1SAT
1 43803U 18099AX  22355.21900739  .00003740  00000-0  31886-3 0  9996
2 43803  97.5998  57.4464 0014700   6.1306 354.0094 14.98252224221026
0 AO-91
1 43017U 17073E   22355.18281727  .00007645  00000-0  56407-3 0  9993
2 43017  97.6533 241.6612 0241914 295.7900  61.8534 14.83036857274774
0 AO-95
1 43770U 18099N   22355.15950940  .00003645  00000-0  31703-3 0  9993
2 43770  97.5998  56.5470 0014147  13.7176 346.4428 14.97500041220948
